NOAA 1 [-]              
1 04793U 70106A   16033.38925080 -.00000049  00000-0 -21892-4 0  9996
2 04793 101.8758  93.4072 0032304 140.7236 276.4547 12.53975660 66387
NOAA 2 [-]              
1 06235U 72082A   16033.51359363 -.00000009  00000-0  22326-3 0  9991
2 06235 101.6061   2.4888 0003595 236.9620 233.0213 12.53077529980735
NOAA 3 [-]              
1 06920U 73086A   16033.46751428 -.00000043  00000-0  55425-5 0  9995
2 06920 101.8667   7.9732 0006548 295.9290 177.2750 12.40356277912463
NOAA 4 [-]              
1 07529U 74089A   16033.52153939 -.00000023  00000-0  13288-3 0  9992
2 07529 101.5668   7.8724 0008726 272.1229 195.6050 12.53111598885326
NOAA 5 [-]              
1 09057U 76077A   16033.53517338 -.00000027  00000-0  12201-3 0  9995
2 09057 101.7768  26.8975 0009815 142.3849 294.2245 12.37772234786067
TIROS N [P]             
1 11060U 78096A   16033.18251294  .00000008  00000-0  26046-4 0  9993
2 11060  98.9644  74.2004 0010017 335.2814  24.7879 14.18093139141970
NOAA 6 [P]              
1 11416U 79057A   16033.53906916  .00000144  00000-0  68157-4 0  9993
2 11416  98.5316  21.2620 0009334 292.0432  67.9761 14.33306782908359
NOAA 7 [-]              
1 12553U 81059A   16033.47556192  .00000024  00000-0  34526-4 0  9991
2 12553  98.9857   2.0055 0010597 237.4959 232.0646 14.17176262788415
NOAA 8 [-]              
1 13923U 83022A   16033.49345895  .00000084  00000-0  50335-4 0  9995
2 13923  98.4775  30.8128 0015061 190.9707 169.1149 14.28497652710409
NOAA 9 [P]              
1 15427U 84123A   16033.48698859  .00000060  00000-0  52791-4 0  9991
2 15427  98.7466 338.9815 0014148 313.3921 155.8212 14.15935277607515
NOAA 10 [-]             
1 16969U 86073A   16033.55177716  .00000047  00000-0  35944-4 0  9997
2 16969  98.4756  51.3837 0011272 310.7585 213.9758 14.27949037528984
NOAA 11 [-]             
1 19531U 88089A   16033.27280663 -.00000014  00000-0  14819-4 0  9992
2 19531  98.6194 104.3552 0011830  39.7802 320.4237 14.15177527411906
NOAA 12 [-]             
1 21263U 91032A   16033.53003932  .00000017  00000-0  25553-4 0  9999
2 21263  98.6092  61.6903 0012755 305.7119  54.2873 14.25797787285383
NOAA 13 [-]             
1 22739U 93050A   16033.29319459 -.00000010  00000-0  17271-4 0  9999
2 22739  98.6326  96.0859 0010016 159.2457 242.3322 14.12641444158729
NOAA 14 [-]             
1 23455U 94089A   16033.52785711 -.00000021  00000-0  11587-4 0  9998
2 23455  98.7335 115.0480 0010198 139.4940 347.9626 14.14067149 88082
NOAA 15 [B]             
1 25338U 98030A   16033.49486604  .00000091  00000-0  57353-4 0  9992
2 25338  98.7815  37.3860 0009976 215.5607 144.4908 14.25699268921650
NOAA 16 [-]             
1 26536U 00055A   16033.49462322  .00000012  00000-0  30129-4 0  9999
2 26536  98.9142 103.9246 0009585 303.3993  56.6261 14.13134162792188
NOAA 17 [-]             
1 27453U 02032A   16033.54219027  .00000069  00000-0  47015-4 0  9997
2 27453  98.3671  13.4360 0010834 223.2790 136.7540 14.24922185707463
NOAA 18 [B]             
1 28654U 05018A   16033.53298708  .00000041  00000-0  47743-4 0  9998
2 28654  99.1964  36.9442 0014854  38.2270 321.9951 14.12264738551589
NOAA 19 [+]             
1 33591U 09005A   16033.53663001  .00000140  00000-0  10108-3 0  9990
2 33591  99.0225 349.3300 0013079 239.5582 120.4297 14.12034860359995
NPP [+]                 
1 37849U 11061A   16033.23782977  .00000044  00000-0  41671-4 0  9999
2 37849  98.7094 333.5458 0001608 113.7911  22.5518 14.19567577221010
